NORAD_CAT_ID,OBJECT_NAME,OBJECT_TYPE,EPOCH,MEAN_MOTION,ECCENTRICITY,INCLINATION,RA_OF_ASC_NODE,ARG_OF_PERICENTER,MEAN_ANOMALY,BSTAR,MEAN_MOTION_DOT,MEAN_MOTION_DDOT,TLE_LINE0,TLE_LINE1,TLE_LINE2,SEMIMAJOR_AXIS,PERIOD,APOGEE,PERIGEE,DECAYED
52575.0,STARLINK-3920,PAYLOAD,2023-08-24 11:06:54,15.08837742,0.0001221,53.2175,326.0893,105.1183,254.9944,4.5634e-05,4.38e-06,0.0,0 STARLINK-3920,1 52575U 22051AR  23236.46312614  .00000438  00000-0  45634-4 0  9998,2 52575  53.2175 326.0893 0001221 105.1183 254.9944 15.08837742 71454,6917.887,95.438,540.597,538.908,0.0
52575.0,STARLINK-3920,PAYLOAD,2023-08-25 10:57:40,15.088559,0.000112,53.2173,321.6308,84.9385,275.1735,0.00018912,2.725e-05,0.0,0 STARLINK-3920,1 52575U 22051AR  23237.45671750  .00002725  00000-0  18912-3 0  9996,2 52575  53.2173 321.6308 0001120  84.9385 275.1735 15.08855900 71673,6917.832,95.437,540.472,538.922,0.0
52575.0,STARLINK-3920,PAYLOAD,2023-08-25 12:33:03,15.08856521,0.0001459,53.2188,321.3388,113.1265,246.9881,0.00023959,3.529e-05,0.0,0 STARLINK-3920,1 52575U 22051AR  23237.52295673  .00003529  00000-0  23959-3 0  9990,2 52575  53.2188 321.3388 0001459 113.1265 246.9881 15.08856521 71613,6917.83,95.437,540.704,538.686,0.0
52575.0,STARLINK-3920,PAYLOAD,2023-08-25 17:19:12,15.08863001,0.0001186,53.2175,320.4399,94.1065,266.0062,0.00045096,6.901e-05,0.0,0 STARLINK-3920,1 52575U 22051AR  23237.72167422  .00006901  00000-0  45096-3 0  9995,2 52575  53.2175 320.4399 0001186  94.1065 266.0062 15.08863001 71642,6917.81,95.436,540.496,538.855,0.0
52575.0,STARLINK-3920,PAYLOAD,2023-08-26 10:48:27,15.08843459,0.0001203,53.2174,317.1702,97.2519,262.861,5.4311e-05,5.77e-06,0.0,0 STARLINK-3920,1 52575U 22051AR  23238.45032182  .00000577  00000-0  54311-4 0  9994,2 52575  53.2174 317.1702 0001203  97.2519 262.8610 15.08843459 71828,6917.87,95.437,540.567,538.903,0.0
52575.0,STARLINK-3920,PAYLOAD,2023-08-26 12:23:50,15.08848988,0.0001196,53.2174,316.8727,97.0078,263.105,0.00025756,3.815e-05,0.0,0 STARLINK-3920,1 52575U 22051AR  23238.51656106  .00003815  00000-0  25756-3 0  9997,2 52575  53.2174 316.8727 0001196  97.0078 263.1050 15.08848988 71767,6917.853,95.437,540.545,538.891,0.0
52575.0,STARLINK-3920,PAYLOAD,2023-08-27 09:03:51,15.08842216,0.0001278,53.2174,313.0074,103.5057,256.6077,0.00044107,6.739e-05,0.0,0 STARLINK-3920,1 52575U 22051AR  23239.37768491  .00006739  00000-0  44107-3 0  9992,2 52575  53.2174 313.0074 0001278 103.5057 256.6077 15.08842216 71890,6917.874,95.437,540.623,538.855,0.0
52575.0,STARLINK-3920,PAYLOAD,2023-08-27 10:39:15,15.08842816,0.0001257,53.2175,312.7101,102.8909,257.2224,0.0003912,5.944e-05,0.0,0 STARLINK-3920,1 52575U 22051AR  23239.44392472  .00005944  00000-0  39120-3 0  9998,2 52575  53.2175 312.7101 0001257 102.8909 257.2224 15.08842816 71902,6917.872,95.437,540.606,538.867,0.0
52575.0,STARLINK-3920,PAYLOAD,2023-08-28 08:54:39,15.08841135,0.0001273,53.2172,308.5472,104.9076,255.2057,0.00018272,2.621e-05,0.0,0 STARLINK-3920,1 52575U 22051AR  23240.37128573  .00002621  00000-0  18272-3 0  9995,2 52575  53.2172 308.5472 0001273 104.9076 255.2057 15.08841135 72118,6917.877,95.437,540.623,538.861,0.0
52575.0,STARLINK-3920,PAYLOAD,2023-08-28 16:51:34,15.08848653,0.0001173,53.2162,307.0591,98.6539,261.4586,0.00030134,4.512e-05,0.0,0 STARLINK-3920,1 52575U 22051AR  23240.70248292  .00004512  00000-0  30134-3 0  9995,2 52575  53.2162 307.0591 0001173  98.6539 261.4586 15.08848653 72090,6917.854,95.437,540.53,538.907,0.0
52575.0,STARLINK-3920,PAYLOAD,2023-08-29 08:45:26,15.08838827,0.0001307,53.217,304.083,97.3664,262.7477,6.4732e-05,7.42e-06,0.0,0 STARLINK-3920,1 52575U 22051AR  23241.36488678  .00000742  00000-0  64732-4 0  9995,2 52575  53.2170 304.0830 0001307  97.3664 262.7477 15.08838827 72260,6917.884,95.438,540.653,538.845,0.0
52575.0,STARLINK-3920,PAYLOAD,2023-08-29 16:42:21,15.08846487,0.0001193,53.2159,302.5972,96.0164,264.0964,0.00019332,2.791e-05,0.0,0 STARLINK-3920,1 52575U 22051AR  23241.69608366  .00002791  00000-0  19332-3 0  9990,2 52575  53.2159 302.5972 0001193  96.0164 264.0964 15.08846487 72246,6917.861,95.437,540.551,538.9,0.0
52575.0,STARLINK-3920,PAYLOAD,2023-08-30 08:36:13,15.08834591,9.33e-05,53.2156,299.6283,78.7905,281.3192,-2.1242e-05,-6.26e-06,0.0,0 STARLINK-3920,1 52575U 22051AR  23242.35849045 -.00000626  00000-0 -21242-4 0  9996,2 52575  53.2156 299.6283 0000933  78.7905 281.3192 15.08834591 72412,6917.897,95.438,540.407,539.116,0.0
52575.0,STARLINK-3920,PAYLOAD,2023-08-30 10:11:36,15.08837354,0.0001231,53.2163,299.3311,78.3658,281.7472,4.1545e-05,3.73e-06,0.0,0 STARLINK-3920,1 52575U 22051AR  23242.42473058  .00000373  00000-0  41545-4 0  9996,2 52575  53.2163 299.3311 0001231  78.3658 281.7472 15.08837354 72350,6917.888,95.438,540.605,538.902,0.0
52575.0,STARLINK-3920,PAYLOAD,2023-08-31 14:48:32,15.08847188,6.77e-05,53.2159,293.9794,67.076,293.0303,0.00028112,4.19e-05,0.0,0 STARLINK-3920,1 52575U 22051AR  23243.61704519  .00004190  00000-0  28112-3 0  9992,2 52575  53.2159 293.9794 0000677  67.0760 293.0303 15.08847188 72605,6917.858,95.437,540.192,539.255,0.0
52575.0,STARLINK-3920,PAYLOAD,2023-09-01 03:31:38,15.08837454,9.73e-05,53.2157,291.6003,64.2237,295.8855,0.00011486,1.541e-05,0.0,0 STARLINK-3920,1 52575U 22051AR  23244.14697042  .00001541  00000-0  11486-3 0  9996,2 52575  53.2157 291.6003 0000973  64.2237 295.8855 15.08837454 72683,6917.888,95.438,540.426,539.08,0.0
52575.0,STARLINK-3920,PAYLOAD,2023-09-01 14:39:19,15.0884684,0.0001358,53.2162,289.517,77.1192,282.9952,0.00013016,1.785e-05,0.0,0 STARLINK-3920,1 52575U 22051AR  23244.61064667  .00001785  00000-0  13016-3 0  9990,2 52575  53.2162 289.5170 0001358  77.1192 282.9952 15.08846840 72753,6917.859,95.437,540.664,538.785,0.0
52575.0,STARLINK-3920,PAYLOAD,2023-09-02 03:22:25,15.08840986,0.0001344,53.2158,287.1382,78.4638,281.6505,6.4675e-05,7.42e-06,0.0,0 STARLINK-3920,1 52575U 22051AR  23245.14056890  .00000742  00000-0  64675-4 0  9998,2 52575  53.2158 287.1382 0001344  78.4638 281.6505 15.08840986 72835,6917.877,95.437,540.672,538.813,0.0
52575.0,STARLINK-3920,PAYLOAD,2023-09-02 09:43:57,15.08844148,0.0001609,53.2129,285.947,93.8681,266.2495,0.00016852,2.395e-05,0.0,0 STARLINK-3920,1 52575U 22051AR  23245.40552621  .00002395  00000-0  16852-3 0  9999,2 52575  53.2129 285.9470 0001609  93.8681 266.2495 15.08844148 72808,6917.868,95.437,540.846,538.62,0.0
52575.0,STARLINK-3920,PAYLOAD,2023-09-02 19:16:16,15.08845898,0.0001511,53.213,284.163,93.0381,267.0784,0.00017217,2.454e-05,0.0,0 STARLINK-3920,1 52575U 22051AR  23245.80296484  .00002454  00000-0  17217-3 0  9997,2 52575  53.2130 284.1630 0001511  93.0381 267.0784 15.08845898 72869,6917.862,95.437,540.773,538.682,0.0
52575.0,STARLINK-3920,PAYLOAD,2023-09-03 09:34:44,15.08838526,0.0001816,53.2125,281.4866,95.8752,264.2447,4.8466e-05,4.83e-06,0.0,0 STARLINK-3920,1 52575U 22051AR  23246.39912876  .00000483  00000-0  48466-4 0  9993,2 52575  53.2125 281.4866 0001816  95.8752 264.2447 15.08838526 73028,6917.885,95.438,541.006,538.494,0.0
52575.0,STARLINK-3920,PAYLOAD,2023-09-04 01:28:36,15.08832177,0.0001719,53.2167,278.5114,86.3906,273.7283,1.3902e-05,-6.7e-07,0.0,0 STARLINK-3920,1 52575U 22051AR  23247.06153832 -.00000067  00000-0  13902-4 0  9993,2 52575  53.2167 278.5114 0001719  86.3906 273.7283 15.08832177 73125,6917.904,95.438,540.958,538.58,0.0
52575.0,STARLINK-3920,PAYLOAD,2023-09-04 12:36:19,15.08831959,0.0001581,53.2169,276.432,91.1165,269.0008,-1.8385e-05,-5.81e-06,0.0,0 STARLINK-3920,1 52575U 22051AR  23247.52522149 -.00000581  00000-0 -18385-4 0  9997,2 52575  53.2169 276.4320 0001581  91.1165 269.0008 15.08831959 73121,6917.905,95.438,540.864,538.676,0.0
52575.0,STARLINK-3920,PAYLOAD,2023-09-05 10:51:42,15.08837913,0.0001483,53.2166,272.2683,87.0412,273.075,0.00010087,1.318e-05,0.0,0 STARLINK-3920,1 52575U 22051AR  23248.45257888  .00001318  00000-0  10087-3 0  9992,2 52575  53.2166 272.2683 0001483  87.0412 273.0750 15.08837913 73332,6917.887,95.438,540.778,538.726,0.0
52575.0,STARLINK-3920,PAYLOAD,2023-09-06 10:42:29,15.08845461,0.0001428,53.2163,267.8067,85.7393,274.3762,0.00021842,3.19e-05,0.0,0 STARLINK-3920,1 52575U 22051AR  23249.44617418  .00003190  00000-0  21842-3 0  9992,2 52575  53.2163 267.8067 0001428  85.7393 274.3762 15.08845461 73410,6917.864,95.437,540.717,538.741,0.0
52575.0,STARLINK-3920,PAYLOAD,2023-09-06 13:53:15,15.08848186,0.0001443,53.2163,267.2121,85.506,274.6097,0.00023109,3.393e-05,0.0,0 STARLINK-3920,1 52575U 22051AR  23249.57865261  .00003393  00000-0  23109-3 0  9990,2 52575  53.2163 267.2121 0001443  85.5060 274.6097 15.08848186 73502,6917.855,95.437,540.719,538.722,0.0
52575.0,STARLINK-3920,PAYLOAD,2023-09-06 18:39:25,15.08844204,0.0001408,53.2159,266.3198,85.9401,274.1752,0.00017618,2.517e-05,0.0,0 STARLINK-3920,1 52575U 22051AR  23249.77737662  .00002517  00000-0  17618-3 0  9990,2 52575  53.2159 266.3198 0001408  85.9401 274.1752 15.08844204 73460,6917.868,95.437,540.707,538.759,0.0
52575.0,STARLINK-3920,PAYLOAD,2023-09-07 01:00:57,15.0884346,0.0001493,53.2138,265.1317,84.3115,275.8047,0.00013304,1.83e-05,0.0,0 STARLINK-3920,1 52575U 22051AR  23250.04233795  .00001830  00000-0  13304-3 0  9995,2 52575  53.2138 265.1317 0001493  84.3115 275.8047 15.08843460 73576,6917.87,95.437,540.768,538.702,0.0
52575.0,STARLINK-3920,PAYLOAD,2023-09-07 07:22:30,15.08842545,0.0001441,53.215,263.9419,84.9,275.2156,6.452e-05,7.39e-06,0.0,0 STARLINK-3920,1 52575U 22051AR  23250.30729960  .00000739  00000-0  64520-4 0  9992,2 52575  53.2150 263.9419 0001441  84.9000 275.2156 15.08842545 73546,6917.873,95.437,540.734,538.741,0.0
52575.0,STARLINK-3920,PAYLOAD,2023-09-08 07:13:17,15.08844746,0.000145,53.2155,259.4796,95.0768,265.039,9.2995e-05,1.193e-05,0.0,0 STARLINK-3920,1 52575U 22051AR  23251.30089299  .00001193  00000-0  92995-4 0  9999,2 52575  53.2155 259.4796 0001450  95.0768 265.0390 15.08844746 73769,6917.866,95.437,540.734,538.728,0.0
